"CCSDS_OMM_VERS","COMMENT","CREATION_DATE","ORIGINATOR","OBJECT_NAME","OBJECT_ID","CENTER_NAME","REF_FRAME","TIME_SYSTEM","MEAN_ELEMENT_THEORY","EPOCH","MEAN_MOTION","ECCENTRICITY","INCLINATION","RA_OF_ASC_NODE","ARG_OF_PERICENTER","MEAN_ANOMALY","EPHEMERIS_TYPE","CLASSIFICATION_TYPE","NORAD_CAT_ID","ELEMENT_SET_NO","REV_AT_EPOCH","BSTAR","MEAN_MOTION_DOT","MEAN_MOTION_DDOT","SEMIMAJOR_AXIS","PERIOD","APOAPSIS","PERIAPSIS","OBJECT_TYPE","RCS_SIZE","COUNTRY_CODE","LAUNCH_DATE","SITE","DECAY_DATE","FILE","GP_ID","TLE_LINE0","TLE_LINE1","TLE_LINE2"
"2.0","GENERATED VIA SPACE-TRACK.ORG API","2022-12-15T14:16:19","18 SPCS","CARTOSAT 3","2019-081A","EARTH","TEME","UTC","SGP4","2022-12-15T10:29:03.152256","15.19390034","0.00112600","97.3746","47.0731","305.7985","175.3893","0","U","44804","999","16911","0.00019518000000","0.00004069","0.0000000000000","6885.820","94.775","515.438","499.931","PAYLOAD","LARGE","IND","2019-11-27","SRI",null,"3701028","220443420","0 CARTOSAT 3","1 44804U 19081A   22349.43684204  .00004069  00000-0  19518-3 0  9996","2 44804  97.3746  47.0731 0011260 305.7985 175.3893 15.19390034169116"
"2.0","GENERATED VIA SPACE-TRACK.ORG API","2022-12-15T18:29:43","18 SPCS","CARTOSAT 3","2019-081A","EARTH","TEME","UTC","SGP4","2022-12-15T10:29:03.152256","15.19390034","0.00112600","97.3746","47.0731","305.7985","175.3893","0","U","44804","999","16911","0.00019518000000","0.00004069","0.0000000000000","6885.820","94.775","515.438","499.931","PAYLOAD","LARGE","IND","2019-11-27","SRI",null,"3702025","220485374","0 CARTOSAT 3","1 44804U 19081A   22349.43684204  .00004069  00000-0  19518-3 0  9996","2 44804  97.3746  47.0731 0011260 305.7985 175.3893 15.19390034169116"
"2.0","GENERATED VIA SPACE-TRACK.ORG API","2022-12-15T16:36:13","18 SPCS","CARTOSAT 3","2019-081A","EARTH","TEME","UTC","SGP4","2022-12-15T15:21:49.875840","15.19215914","0.00114100","97.3745","47.2695","309.8360","202.5791","0","U","44804","999","16914","0.00000000000000","-0.00000067","0.0000000000000","6886.346","94.786","516.068","500.354","PAYLOAD","LARGE","IND","2019-11-27","SRI",null,"3701493","220454747","0 CARTOSAT 3","1 44804U 19081A   22349.64016060 -.00000067  00000-0  00000+0 0  9995","2 44804  97.3745  47.2695 0011410 309.8360 202.5791 15.19215914169141"
"2.0","GENERATED VIA SPACE-TRACK.ORG API","2022-12-17T02:25:48","18 SPCS","CARTOSAT 3","2019-081A","EARTH","TEME","UTC","SGP4","2022-12-16T21:14:09.578976","15.19219976","0.00112090","97.3758","48.4870","304.8708","170.5528","0","U","44804","999","16933","-0.00001224400000","-0.00000325","0.0000000000000","6886.334","94.785","515.918","500.480","PAYLOAD","LARGE","IND","2019-11-27","SRI",null,"3705029","220659211","0 CARTOSAT 3","1 44804U 19081A   22350.88483309 -.00000325  00000-0 -12244-4 0  9993","2 44804  97.3758  48.4870 0011209 304.8708 170.5528 15.19219976169335"
"2.0","GENERATED VIA SPACE-TRACK.ORG API","2022-12-17T21:06:12","18 SPCS","CARTOSAT 3","2019-081A","EARTH","TEME","UTC","SGP4","2022-12-17T19:25:56.486784","15.19236271","0.00111940","97.3753","49.3888","299.3614","191.0562","0","U","44804","999","16947","0.00020716000000","0.00004303","0.0000000000000","6886.284","94.784","515.858","500.441","PAYLOAD","LARGE","IND","2019-11-27","SRI",null,"3706296","220716966","0 CARTOSAT 3","1 44804U 19081A   22351.80968156  .00004303  00000-0  20716-3 0  9994","2 44804  97.3753  49.3888 0011194 299.3614 191.0562 15.19236271169474"
"2.0","GENERATED VIA SPACE-TRACK.ORG API","2022-12-20T00:16:13","18 SPCS","CARTOSAT 3","2019-081A","EARTH","TEME","UTC","SGP4","2022-12-19T23:33:43.154208","15.19254696","0.00109630","97.3753","51.5095","289.7649","192.7219","0","U","44804","999","16980","0.00020370000000","0.00004232","0.0000000000000","6886.229","94.783","515.643","500.544","PAYLOAD","LARGE","IND","2019-11-27","SRI",null,"3711593","220941846","0 CARTOSAT 3","1 44804U 19081A   22353.98174947  .00004232  00000-0  20370-3 0  9999","2 44804  97.3753  51.5095 0010963 289.7649 192.7219 15.19254696169808"
"2.0","GENERATED VIA SPACE-TRACK.ORG API","2022-12-21T18:16:16","18 SPCS","CARTOSAT 3","2019-081A","EARTH","TEME","UTC","SGP4","2022-12-21T16:33:31.737888","15.19270448","0.00110220","97.3751","53.1780","284.5255","174.7376","0","U","44804","999","17006","0.00020806000000","0.00004326","0.0000000000000","6886.181","94.782","515.636","500.456","PAYLOAD","LARGE","IND","2019-11-27","SRI",null,"3716597","221121493","0 CARTOSAT 3","1 44804U 19081A   22355.68995067  .00004326  00000-0  20806-3 0  9990","2 44804  97.3751  53.1780 0011022 284.5255 174.7376 15.19270448170065"
"2.0","GENERATED VIA SPACE-TRACK.ORG API","2022-12-21T22:26:14","18 SPCS","CARTOSAT 3","2019-081A","EARTH","TEME","UTC","SGP4","2022-12-21T19:46:28.955136","15.19271347","0.00110150","97.3750","53.3087","283.9452","187.7204","0","U","44804","999","17008","0.00020625000000","0.00004288","0.0000000000000","6886.179","94.782","515.629","500.458","PAYLOAD","LARGE","IND","2019-11-27","SRI",null,"3716714","221122269","0 CARTOSAT 3","1 44804U 19081A   22355.82394624  .00004288  00000-0  20625-3 0  9994","2 44804  97.3750  53.3087 0011015 283.9452 187.7204 15.19271347170085"
"2.0","GENERATED VIA SPACE-TRACK.ORG API","2022-12-22T07:06:13","18 SPCS","CARTOSAT 3","2019-081A","EARTH","TEME","UTC","SGP4","2022-12-22T00:26:43.032768","15.19272821","0.00110070","97.3750","53.4988","283.2808","172.0850","0","U","44804","999","17011","0.00020492000000","0.00004260","0.0000000000000","6886.174","94.782","515.619","500.459","PAYLOAD","LARGE","IND","2019-11-27","SRI",null,"3717369","221136244","0 CARTOSAT 3","1 44804U 19081A   22356.01855362  .00004260  00000-0  20492-3 0  9999","2 44804  97.3750  53.4988 0011007 283.2808 172.0850 15.19272821170111"
"2.0","GENERATED VIA SPACE-TRACK.ORG API","2022-12-22T14:26:13","18 SPCS","CARTOSAT 3","2019-081A","EARTH","TEME","UTC","SGP4","2022-12-22T08:12:15.098688","15.19275740","0.00110140","97.3749","53.8144","282.0177","140.4054","0","U","44804","999","17016","0.00020555000000","0.00004274","0.0000000000000","6886.165","94.782","515.615","500.446","PAYLOAD","LARGE","IND","2019-11-27","SRI",null,"3718431","221159419","0 CARTOSAT 3","1 44804U 19081A   22356.34184142  .00004274  00000-0  20555-3 0  9991","2 44804  97.3749  53.8144 0011014 282.0177 140.4054 15.19275740170164"
"2.0","GENERATED VIA SPACE-TRACK.ORG API","2022-12-22T18:47:50","18 SPCS","CARTOSAT 3","2019-081A","EARTH","TEME","UTC","SGP4","2022-12-22T13:16:13.079424","15.19277508","0.00110240","97.3750","54.0206","281.3069","214.9005","0","U","44804","999","17019","0.00020517000000","0.00004266","0.0000000000000","6886.160","94.782","515.616","500.434","PAYLOAD","LARGE","IND","2019-11-27","SRI",null,"3719197","221196328","0 CARTOSAT 3","1 44804U 19081A   22356.55292916  .00004266  00000-0  20517-3 0  9992","2 44804  97.3750  54.0206 0011024 281.3069 214.9005 15.19277508170191"
"2.0","GENERATED VIA SPACE-TRACK.ORG API","2022-12-22T22:16:12","18 SPCS","CARTOSAT 3","2019-081A","EARTH","TEME","UTC","SGP4","2022-12-22T17:53:51.307872","15.19278954","0.00110310","97.3749","54.2087","280.5690","189.4834","0","U","44804","999","17022","0.00020390000000","0.00004240","0.0000000000000","6886.156","94.782","515.617","500.424","PAYLOAD","LARGE","IND","2019-11-27","SRI",null,"3719232","221203649","0 CARTOSAT 3","1 44804U 19081A   22356.74573273  .00004240  00000-0  20390-3 0  9992","2 44804  97.3749  54.2087 0011031 280.5690 189.4834 15.19278954170223"
"2.0","GENERATED VIA SPACE-TRACK.ORG API","2022-12-23T03:05:02","18 SPCS","CARTOSAT 3","2019-081A","EARTH","TEME","UTC","SGP4","2022-12-22T22:36:47.534976","15.19280194","0.00110370","97.3749","54.4005","279.7735","184.2409","0","U","44804","999","17025","0.00020150000000","0.00004189","0.0000000000000","6886.152","94.782","515.617","500.417","PAYLOAD","LARGE","IND","2019-11-27","SRI",null,"3719655","221232206","0 CARTOSAT 3","1 44804U 19081A   22356.94221684  .00004189  00000-0  20150-3 0  9996","2 44804  97.3749  54.4005 0011037 279.7735 184.2409 15.19280194170254"
"2.0","GENERATED VIA SPACE-TRACK.ORG API","2022-12-23T06:26:13","18 SPCS","CARTOSAT 3","2019-081A","EARTH","TEME","UTC","SGP4","2022-12-23T03:16:00.045696","15.19281801","0.00110410","97.3749","54.5898","279.1559","164.6711","0","U","44804","999","17028","0.00020124000000","0.00004184","0.0000000000000","6886.147","94.782","515.615","500.409","PAYLOAD","LARGE","IND","2019-11-27","SRI",null,"3719703","221239645","0 CARTOSAT 3","1 44804U 19081A   22357.13611164  .00004184  00000-0  20124-3 0  9990","2 44804  97.3749  54.5898 0011041 279.1559 164.6711 15.19281801170285"
"2.0","GENERATED VIA SPACE-TRACK.ORG API","2022-12-23T14:16:13","18 SPCS","CARTOSAT 3","2019-081A","EARTH","TEME","UTC","SGP4","2022-12-23T08:13:11.420256","15.19283582","0.00110300","97.3748","54.7913","278.4700","213.4227","0","U","44804","999","17031","0.00020169000000","0.00004193","0.0000000000000","6886.142","94.782","515.602","500.411","PAYLOAD","LARGE","IND","2019-11-27","SRI",null,"3720028","221246106","0 CARTOSAT 3","1 44804U 19081A   22357.34249329  .00004193  00000-0  20169-3 0  9992","2 44804  97.3748  54.7913 0011030 278.4700 213.4227 15.19283582170319"
"2.0","GENERATED VIA SPACE-TRACK.ORG API","2022-12-23T18:35:41","18 SPCS","CARTOSAT 3","2019-081A","EARTH","TEME","UTC","SGP4","2022-12-23T12:59:03.595776","15.19285048","0.00110450","97.3748","54.9852","277.8437","219.1467","0","U","44804","999","17034","0.00020045000000","0.00004167","0.0000000000000","6886.137","94.781","515.608","500.396","PAYLOAD","LARGE","IND","2019-11-27","SRI",null,"3720302","221272913","0 CARTOSAT 3","1 44804U 19081A   22357.54101384  .00004167  00000-0  20045-3 0  9996","2 44804  97.3748  54.9852 0011045 277.8437 219.1467 15.19285048170340"
